MALLIGYONG-1            
1 58400U 23179A   24021.11799574  .00008435  00000+0  37072-3 0  9992
2 58400  97.4247 270.1016 0017566  67.8753 292.4346 15.22010150  9208
